{
    "links": {
        "self": "http://www.neowsapp.com/rest/v1/neo/3674886?api_key=iIulBulltgU6a56xZRHN4H3l9WmuAYTsLGpBGhQ2"
    },
    "id": "3674886",
    "neo_reference_id": "3674886",
    "name": "(2014 OZ1)",
    "designation": "2014 OZ1",
    "nasa_jpl_url": "http://ssd.jpl.nasa.gov/sbdb.cgi?sstr=3674886",
    "absolute_magnitude_h": 21.0,
    "estimated_diameter": {
        "kilometers": {
            "estimated_diameter_min": 0.1677084622,
            "estimated_diameter_max": 0.3750075218
        },
        "meters": {
            "estimated_diameter_min": 167.7084621628,
            "estimated_diameter_max": 375.0075217981
        },
        "miles": {
            "estimated_diameter_min": 0.1042091748,
            "estimated_diameter_max": 0.2330187988
        },
        "feet": {
            "estimated_diameter_min": 550.2246310023,
            "estimated_diameter_max": 1230.3396778159
        }
    },
    "is_potentially_hazardous_asteroid": false,
    "close_approach_data": [
        {
            "close_approach_date": "2014-03-14",
            "close_approach_date_full": "2014-Mar-14 01:58",
            "epoch_date_close_approach": 1394762280000,
            "relative_velocity": {
                "kilometers_per_second": "9.2599148157",
                "kilometers_per_hour": "33335.693336696",
                "miles_per_hour": "20713.5034513487"
            },
            "miss_distance": {
                "astronomical": "0.4968716181",
                "lunar": "193.2830594409",
                "kilometers": "74330935.731213447",
                "miles": "46187101.7390096886"
            },
            "orbiting_body": "Earth"
        },
        {
            "close_approach_date": "2014-07-25",
            "close_approach_date_full": "2014-Jul-25 22:09",
            "epoch_date_close_approach": 1406326140000,
            "relative_velocity": {
                "kilometers_per_second": "18.2909536581",
                "kilometers_per_hour": "65847.4331693029",
                "miles_per_hour": "40915.0342378927"
            },
            "miss_distance": {
                "astronomical": "0.4410659563",
                "lunar": "171.5746570007",
                "kilometers": "65982527.591993081",
                "miles": "40999641.4670272778"
            },
            "orbiting_body": "Earth"
        }
    ],
    "orbital_data": {
        "orbit_id": "15",
        "orbit_determination_date": "2017-04-06 08:39:34",
        "first_observation_date": "2014-07-21",
        "last_observation_date": "2014-08-26",
        "data_arc_in_days": 36,
        "observations_used": 14,
        "orbit_uncertainty": "8",
        "minimum_orbit_intersection": ".230873",
        "jupiter_tisserand_invariant": "4.047",
        "epoch_osculation": "2456876.5",
        "eccentricity": ".370635339621266",
        "semi_major_axis": "1.715629221039948",
        "inclination": "18.00623420486867",
        "ascending_node_longitude": "141.6391129292244",
        "orbital_period": "820.792876898643",
        "perihelion_distance": "1.079756402035639",
        "perihelion_argument": "104.5645135434234",
        "aphelion_distance": "2.351502040044258",
        "perihelion_time": "2456828.926008144005",
        "mean_anomaly": "20.86596698167144",
        "mean_motion": ".438600297507766",
        "equinox": "J2000",
        "orbit_class": {
            "orbit_class_type": "AMO",
            "orbit_class_description": "Near-Earth asteroid orbits similar to that of 1221 Amor",
            "orbit_class_range": "1.017 AU < q (perihelion) < 1.3 AU"
        }
    },
    "is_sentry_object": false
}